NORAD_CAT_ID,OBJECT_NAME,OBJECT_TYPE,EPOCH,MEAN_MOTION,ECCENTRICITY,INCLINATION,RA_OF_ASC_NODE,ARG_OF_PERICENTER,MEAN_ANOMALY,BSTAR,MEAN_MOTION_DOT,MEAN_MOTION_DDOT,TLE_LINE0,TLE_LINE1,TLE_LINE2,SEMIMAJOR_AXIS,PERIOD,APOGEE,PERIGEE,DECAYED
52700.0,STARLINK-4034,PAYLOAD,2022-09-04 06:00:00,15.08839545,0.0002198999999999,53.2153,146.2043,59.2022,321.6481,0.0015312,0.00024165,0.0,0 STARLINK-4034,1 52700U 22053AW  22247.25001157  .00024165  00000-0  15312-2 0  9996,2 52700  53.2153 146.2043 0002199  59.2022 321.6481 15.08839545 17074,6917.882,95.438,541.268,538.226,0.0
52700.0,STARLINK-4034,PAYLOAD,2022-09-04 14:00:01,15.08842679,0.0002041999999999,53.2155,144.7061,65.1879,327.3392,0.00078196,0.0001217999999999,0.0,0 STARLINK-4034,1 52700U 22053AW  22247.58335648  .00012180  00000-0  78196-3 0  9991,2 52700  53.2155 144.7061 0002042  65.1879 327.3392 15.08842679  1307,6917.871999999999,95.437,541.15,538.325,0.0
52700.0,STARLINK-4034,PAYLOAD,2022-09-04 20:00:01,15.08864524,0.0002061,53.2158,143.5846,64.76,246.4028,-0.0020545,-0.0003286,0.0,0 STARLINK-4034,1 52700U 22053AW  22247.83334491 -.00032860  00000-0 -20545-2 0  9997,2 52700  53.2158 143.5846 0002061  64.7600 246.4028 15.08864524  1306,6917.805,95.436,541.096,538.245,0.0
52700.0,STARLINK-4034,PAYLOAD,2022-09-05 14:00:01,15.08838503,0.0001884,53.2161,140.2169,62.7308,4.5477,0.0010427,0.00016345,0.0,0 STARLINK-4034,1 52700U 22053AW  22248.58334491  .00016345  00000-0  10427-2 0  9996,2 52700  53.2161 140.2169 0001884  62.7308   4.5477 15.08838503 17279,6917.885,95.438,541.053,538.447,0.0
52700.0,STARLINK-4034,PAYLOAD,2022-09-05 20:00:01,15.08859594,0.0001916999999999,53.2165,139.0956,60.9022,285.0654,-0.0046356999999999,-0.00073355,0.0,0 STARLINK-4034,1 52700U 22053AW  22248.83334491 -.00073355  00000-0 -46357-2 0  9991,2 52700  53.2165 139.0956 0001917  60.9022 285.0654 15.08859594 17314,6917.82,95.436,541.012,538.359,0.0
52700.0,STARLINK-4034,PAYLOAD,2022-09-05 22:00:00,15.08840248,0.0001943999999999,53.2164,138.722,58.6043,20.2674,-0.0034097999999999,-0.00054149,0.0,0 STARLINK-4034,1 52700U 22053AW  22248.91667824 -.00054149  00000-0 -34098-2 0  9998,2 52700  53.2164 138.7220 0001944  58.6043  20.2674 15.08840248  1309,6917.88,95.438,541.089,538.4,0.0
52700.0,STARLINK-4034,PAYLOAD,2022-09-06 06:00:00,15.08825605,0.0001906999999999,53.2164,137.226,53.1463,37.2921,-0.001187,-0.00019122,0.0,0 STARLINK-4034,1 52700U 22053AW  22249.25001157 -.00019122  00000-0 -11870-2 0  9992,2 52700  53.2164 137.2260 0001907  53.1463  37.2921 15.08825605 17380,6917.924,95.438,541.109,538.47,0.0
52700.0,STARLINK-4034,PAYLOAD,2022-09-06 14:00:01,15.08779678,0.0001726,53.2169,135.7281,59.2628,42.7536,0.0028076,0.00044604,0.0,0 STARLINK-4034,1 52700U 22053AW  22249.58334491  .00044604  00000-0  28076-2 0  9995,2 52700  53.2169 135.7281 0001726  59.2628  42.7536 15.08779678  1306,6918.065,95.441,541.124,538.736,0.0
52700.0,STARLINK-4034,PAYLOAD,2022-09-06 22:00:00,15.08815697,0.000187,53.217,134.2333,56.1788,57.3792,-0.00081345,-0.00013202,0.0,0 STARLINK-4034,1 52700U 22053AW  22249.91667824 -.00013202  00000-0 -81345-3 0  9992,2 52700  53.2170 134.2333 0001870  56.1788  57.3792 15.08815697  1301,6917.955,95.439,541.113,538.526,0.0
52700.0,STARLINK-4034,PAYLOAD,2022-09-07 04:00:00,15.08796317,0.0001904,53.217,133.1117,52.5,339.728,0.0027515,0.00043722,0.0,0 STARLINK-4034,1 52700U 22053AW  22250.16667824  .00043722  00000-0  27515-2 0  9997,2 52700  53.2170 133.1117 0001904  52.5000 339.7280 15.08796317 17510,6918.014,95.44,541.196,538.562,0.0
52700.0,STARLINK-4034,PAYLOAD,2022-09-07 14:00:01,15.08806532,0.0001753,53.2173,131.2394,61.0062,75.685,0.0031041,0.00049415,0.0,0 STARLINK-4034,1 52700U 22053AW  22250.58334491  .00049415  00000-0  31041-2 0  9998,2 52700  53.2173 131.2394 0001753  61.0062  75.6850 15.08806532  1304,6917.983,95.44,541.06,538.635,0.0
52700.0,STARLINK-4034,PAYLOAD,2022-09-07 22:00:00,15.08840026,0.0001895,53.2173,129.7447,57.1464,91.1177,-0.0007151,-0.00011651,0.0,0 STARLINK-4034,1 52700U 22053AW  22250.91667824 -.00011651  00000-0 -71510-3 0  9993,2 52700  53.2173 129.7447 0001895  57.1464  91.1177 15.08840026 17638,6917.88,95.438,541.056,538.434,0.0
52700.0,STARLINK-4034,PAYLOAD,2022-09-08 14:00:01,15.08835882,0.0001744,53.2172,126.7505,62.8448,108.6181,0.0027859,0.00044324,0.0,0 STARLINK-4034,1 52700U 22053AW  22251.58334491  .00044324  00000-0  27859-2 0  9995,2 52700  53.2172 126.7505 0001744  62.8448 108.6181 15.08835882  1307,6917.893,95.438,540.964,538.5509999999998,0.0
52700.0,STARLINK-4034,PAYLOAD,2022-09-08 22:00:00,15.08859588,0.0001947,53.2171,125.2558,58.3175,124.7546,-0.0025398,-0.00040505,0.0,0 STARLINK-4034,1 52700U 22053AW  22251.91667824 -.00040505  00000-0 -25398-2 0  9996,2 52700  53.2171 125.2558 0001947  58.3175 124.7546 15.08859588 17782,6917.821,95.436,541.0319999999998,538.339,0.0
52700.0,STARLINK-4034,PAYLOAD,2022-09-09 14:00:01,15.08845541,0.0001745,53.2166,122.2615,64.2332,142.0459,0.0013291,0.00020931,0.0,0 STARLINK-4034,1 52700U 22053AW  22252.58334491  .00020931  00000-0  13291-2 0  9999,2 52700  53.2166 122.2615 0001745  64.2332 142.0459 15.08845541  1305,6917.863,95.437,540.936,538.521,0.0
52700.0,STARLINK-4034,PAYLOAD,2022-09-09 22:00:00,15.0884417,0.0001819,53.2164,120.7668,57.7616,160.1348,-0.0010683,-0.00017252,0.0,0 STARLINK-4034,1 52700U 22053AW  22252.91667824 -.00017252  00000-0 -10683-2 0  9991,2 52700  53.2164 120.7668 0001819  57.7616 160.1348 15.08844170  1303,6917.868,95.437,540.991,538.474,0.0
52700.0,STARLINK-4034,PAYLOAD,2022-09-10 06:00:02,15.08854426,0.000175,53.2159,119.2698,56.8919,172.6461,-0.0018722,-0.00029973,0.0,0 STARLINK-4034,1 52700U 22053AW  22253.25002315 -.00029973  00000-0 -18722-2 0  9992,2 52700  53.2159 119.2698 0001750  56.8919 172.6461 15.08854426 17983,6917.8359999999975,95.437,540.9119999999998,538.491,0.0
52700.0,STARLINK-4034,PAYLOAD,2022-09-10 14:00:01,15.08819101,0.000157,53.2158,117.7722,64.4162,176.6683,0.0023158,0.00036739,0.0,0 STARLINK-4034,1 52700U 22053AW  22253.58334491  .00036739  00000-0  23158-2 0  9996,2 52700  53.2158 117.7722 0001570  64.4162 176.6683 15.08819101  1308,6917.944,95.439,540.895,538.7230000000002,0.0
52700.0,STARLINK-4034,PAYLOAD,2022-09-10 22:00:00,15.08836943,0.0001704,53.2156,116.2775,57.7254,194.9478,0.00015935,2.249e-05,0.0,0 STARLINK-4034,1 52700U 22053AW  22253.91667824  .00002249  00000-0  15935-3 0  9996,2 52700  53.2156 116.2775 0001704  57.7254 194.9478 15.08836943 18085,6917.89,95.438,540.934,538.576,0.0
52700.0,STARLINK-4034,PAYLOAD,2022-09-11 14:00:01,15.08821292,0.0001517,53.2154,113.2826,62.9157,212.9522,0.0023826,0.00037815,0.0,0 STARLINK-4034,1 52700U 22053AW  22254.58334491  .00037815  00000-0  23826-2 0  9995,2 52700  53.2154 113.2826 0001517  62.9157 212.9522 15.08821292  1308,6917.938,95.439,540.852,538.753,0.0
52700.0,STARLINK-4034,PAYLOAD,2022-09-11 22:00:00,15.08838103,0.0001692,53.2153,111.788,56.2153,231.2441,0.00045203,6.913e-05,0.0,0 STARLINK-4034,1 52700U 22053AW  22254.91667824  .00006913  00000-0  45203-3 0  9990,2 52700  53.2153 111.7880 0001692  56.2153 231.2441 15.08838103  1309,6917.886,95.438,540.922,538.581,0.0
52700.0,STARLINK-4034,PAYLOAD,2022-09-12 06:00:00,15.08863518,0.0001686,53.2152,110.2906,56.396,242.6512,-0.0038915,-0.00061731,0.0,0 STARLINK-4034,1 52700U 22053AW  22255.25001157 -.00061731  00000-0 -38915-2 0  9991,2 52700  53.2152 110.2906 0001686  56.3960 242.6512 15.08863518 18289,6917.809,95.436,540.84,538.507,0.0
52700.0,STARLINK-4034,PAYLOAD,2022-09-12 14:00:01,15.08823734,0.0001696999999999,53.2154,108.793,64.2508,246.3932,0.0022903,0.00036334,0.0,0 STARLINK-4034,1 52700U 22053AW  22255.58334491  .00036334  00000-0  22903-2 0  9996,2 52700  53.2154 108.7930 0001697  64.2508 246.3932 15.08823734  1306,6917.93,95.439,540.969,538.621,0.0
52700.0,STARLINK-4034,PAYLOAD,2022-09-12 22:00:00,15.08836118,0.000185,53.2155,107.2983,57.2861,264.9501,0.00084695,0.00013215,0.0,0 STARLINK-4034,1 52700U 22053AW  22255.91667824  .00013215  00000-0  84695-3 0  9992,2 52700  53.2155 107.2983 0001850  57.2861 264.9501 15.08836118 18388,6917.892,95.438,541.0369999999998,538.477,0.0
52700.0,STARLINK-4034,PAYLOAD,2022-09-13 14:00:01,15.08829766,0.0001625,53.2159,104.3035,61.6567,283.7735,0.0018395,0.00029101,0.0,0 STARLINK-4034,1 52700U 22053AW  22256.58334491  .00029101  00000-0  18395-2 0  9991,2 52700  53.2159 104.3035 0001625  61.6567 283.7735 15.08829766  1303,6917.9119999999975,95.438,540.901,538.653,0.0
52700.0,STARLINK-4034,PAYLOAD,2022-09-13 16:00:00,15.08854624,0.0001645,53.2161,103.9306,60.2102,18.1108,-0.0012128,-0.00019546,0.0,0 STARLINK-4034,1 52700U 22053AW  22256.66667824 -.00019546  00000-0 -12128-2 0  9991,2 52700  53.2161 103.9306 0001645  60.2102  18.1108 15.08854624 18509,6917.8359999999975,95.437,540.839,538.563,0.0
52700.0,STARLINK-4034,PAYLOAD,2022-09-13 22:00:00,15.08837685,0.0001766,53.216,102.8096,53.7617,303.265,-0.0016587,-0.00026588,0.0,0 STARLINK-4034,1 52700U 22053AW  22256.91667824 -.00026588  00000-0 -16587-2 0  9996,2 52700  53.2160 102.8096 0001766  53.7617 303.2650 15.08837685  1302,6917.887,95.438,540.974,538.531,0.0
52700.0,STARLINK-4034,PAYLOAD,2022-09-14 14:00:01,15.08828788,0.0001594,53.2166,99.8143,59.9062,320.2718,0.0013868,0.00021845,0.0,0 STARLINK-4034,1 52700U 22053AW  22257.58334491  .00021845  00000-0  13868-2 0  9999,2 52700  53.2166  99.8143 0001594  59.9062 320.2718 15.08828788  1305,6917.915,95.438,540.882,538.677,0.0
52700.0,STARLINK-4034,PAYLOAD,2022-09-14 22:00:00,15.08828617,0.0001753,53.2167,98.3196,52.8686,338.9034,0.0013911,0.00021914,0.0,0 STARLINK-4034,1 52700U 22053AW  22257.91667824  .00021914  00000-0  13911-2 0  9991,2 52700  53.2167  98.3196 0001753  52.8686 338.9034 15.08828617 18686,6917.915,95.438,540.993,538.567,0.0
